[{"OBJECT_NAME":"STARLINK-5503","OBJECT_ID":"2023-094AR","EPOCH":"2026-03-09T06:04:47.166816","MEAN_MOTION":15.02537201,"ECCENTRICITY":0.00013551,"INCLINATION":43.0046,"RA_OF_ASC_NODE":19.7489,"ARG_OF_PERICENTER":265.0344,"MEAN_ANOMALY":95.0344,"EPHEMERIS_TYPE":0,"CLASSIFICATION_TYPE":"U","NORAD_CAT_ID":57257,"ELEMENT_SET_NO":999,"REV_AT_EPOCH":14786,"BSTAR":-2.5291791e-5,"MEAN_MOTION_DOT":-5.45e-6,"MEAN_MOTION_DDOT":0},{"OBJECT_NAME":"CZ-6A DEB","OBJECT_ID":"2024-140LD","EPOCH":"2026-03-09T20:28:55.674624","MEAN_MOTION":14.66900982,"ECCENTRICITY":0.01590307,"INCLINATION":88.6669,"RA_OF_ASC_NODE":257.8237,"ARG_OF_PERICENTER":143.6628,"MEAN_ANOMALY":217.5514,"EPHEMERIS_TYPE":0,"CLASSIFICATION_TYPE":"U","NORAD_CAT_ID":60898,"ELEMENT_SET_NO":999,"REV_AT_EPOCH":8295,"BSTAR":0.0020754891,"MEAN_MOTION_DOT":0.00014066,"MEAN_MOTION_DDOT":0}]
